OBJECT_NAME,OBJECT_ID,EPOCH,MEAN_MOTION,ECCENTRICITY,INCLINATION,RA_OF_ASC_NODE,ARG_OF_PERICENTER,MEAN_ANOMALY,EPHEMERIS_TYPE,CLASSIFICATION_TYPE,NORAD_CAT_ID,ELEMENT_SET_NO,REV_AT_EPOCH,BSTAR,MEAN_MOTION_DOT,MEAN_MOTION_DDOT
SAR-LUPE 2,2007-030A,2026-07-14T21:01:00.275232,15.53623472,.0004814,98.1066,303.8321,203.3456,156.7577,0,U,31797,999,6123,.2754E-3,.1747E-3,0
SAPPHIRE,2013-009C,2026-07-14T20:07:38.007840,14.35247515,.0011564,98.4273,14.6396,160.9338,199.2283,0,U,39088,999,70054,.27386E-4,.36E-6,0
PRAETORIAN SDA_602,2025-203A,2026-07-14T18:49:45.814656,13.83887811,.0007051,81.3043,345.2160,118.5378,241.6489,0,U,65565,999,4251,.5448E-5,.18E-6,0
PRAETORIAN SDA_603,2025-203B,2026-07-14T19:30:31.543776,13.83961936,.0010738,81.3048,345.1117,115.7692,244.4573,0,U,65566,999,4252,.92363E-4,.115E-5,0
PRAETORIAN SDA_604,2025-203C,2026-07-14T20:24:15.450048,13.83049988,.0006559,81.3065,345.5322,122.1363,238.0430,0,U,65567,999,4250,.52724E-5,.18E-6,0
PRAETORIAN SDA_605,2025-203D,2026-07-14T19:26:15.803232,13.83199956,.0009307,81.3030,345.2104,114.1628,246.0502,0,U,65568,999,4251,.12472E-4,.26E-6,0
PRAETORIAN SDA_606,2025-203E,2026-07-14T19:04:54.808320,13.83200061,.0007164,81.3067,345.4620,117.0142,243.1746,0,U,65569,999,4250,.1097E-4,.24E-6,0
PRAETORIAN SDA_607,2025-203F,2026-07-14T18:51:15.713856,13.83758544,.0009932,81.3048,345.0911,115.5001,244.7184,0,U,65570,999,4252,.78565E-4,.99E-6,0
PRAETORIAN SDA_608,2025-203G,2026-07-14T20:10:14.371968,13.83819382,.0007047,81.3019,345.2045,121.0646,239.1203,0,U,65571,999,4251,.13549E-4,.27E-6,0
PRAETORIAN SDA_609,2025-203H,2026-07-14T20:06:02.007072,13.84211517,.000792,81.3061,345.1852,115.6677,244.5299,0,U,65572,999,4252,.69472E-4,.89E-6,0
PRAETORIAN SDA_610,2025-203J,2026-07-14T19:44:03.861888,13.83528126,.000778,81.3021,345.1840,120.6690,239.5234,0,U,65573,999,4251,.31782E-4,.47E-6,0
PRAETORIAN SDA_611,2025-203K,2026-07-14T19:56:48.704064,13.83311485,.0006657,81.3025,345.3580,124.5208,235.6577,0,U,65574,999,4250,.78529E-4,.98E-6,0
PRAETORIAN SDA_612,2025-203L,2026-07-14T18:52:11.119584,13.85040975,.0010249,81.3039,344.9189,115.2436,244.9784,0,U,65575,999,4253,.44204E-4,.62E-6,0
PRAETORIAN SDA_613,2025-203M,2026-07-14T20:22:10.017120,13.82767625,.0006766,81.3012,345.3606,115.6236,244.5619,0,U,65576,999,4250,.15597E-4,.29E-6,0
PRAETORIAN SDA_614,2025-203N,2026-07-14T18:44:06.394848,13.84778503,.0008208,81.3027,345.0083,114.1967,246.0049,0,U,65577,999,4253,.33468E-5,.16E-6,0
PRAETORIAN SDA_615,2025-203P,2026-07-14T20:04:40.230336,13.84438526,.0010127,81.3037,344.9382,114.6099,245.6114,0,U,65578,999,4253,.99339E-4,.123E-5,0
PRAETORIAN SDA_616,2025-203Q,2026-07-14T19:56:51.953568,13.83270193,.0006535,81.3076,345.5223,122.8636,237.3150,0,U,65579,999,4250,.88734E-4,.109E-5,0
PRAETORIAN SDA_617,2025-203R,2026-07-14T18:47:12.388128,13.83152104,.0008472,81.3050,345.3955,114.6404,245.5635,0,U,65580,999,4250,.18493E-4,.32E-6,0
PRAETORIAN SDA_618,2025-203S,2026-07-14T19:17:34.164096,13.84225635,.0010849,81.3032,344.8998,117.7458,242.4800,0,U,65581,999,4253,.87712E-4,.11E-5,0
PRAETORIAN SDA_619,2025-203T,2026-07-14T20:25:40.096992,13.83805968,.0009353,81.3055,345.1844,115.7883,244.4240,0,U,65582,999,4315,.59492E-4,.78E-6,0
PRAETORIAN SDA_620,2025-203U,2026-07-14T19:31:50.034720,13.83207706,.0008628,81.3045,345.2507,112.6686,247.5383,0,U,65583,999,4251,.52961E-4,.7E-6,0
PRAETORIAN SDA_621,2025-203V,2026-07-14T18:44:11.755104,13.83803685,.0008483,81.3033,345.1817,109.8582,250.3489,0,U,65584,999,4251,.14234E-5,.14E-6,0
PRAETORIAN SDA_601,2025-203W,2026-07-14T20:04:15.536352,13.83170386,.0006608,81.3055,345.4581,125.6348,234.5425,0,U,65585,999,4250,-.21182E-4,-.11E-6,0
VICTUS HAZE PUMA,2026-142A,2026-07-14T18:49:57.383616,15.20845903,.002504,97.4467,93.0928,267.3590,92.4779,0,U,69646,999,386,.92002E-4,.1975E-4,0
