SAR-LUPE 2              
1 31797U 07030A   26195.87569763  .00017470  00000+0  27540-3 0  9990
2 31797  98.1066 303.8321 0004814 203.3456 156.7577 15.53623472 61237
SAPPHIRE                
1 39088U 13009C   26195.83863435  .00000036  00000+0  27386-4 0  9992
2 39088  98.4273  14.6396 0011564 160.9338 199.2283 14.35247515700546
PRAETORIAN SDA_602      
1 65565U 25203A   26195.78455804  .00000018  00000+0  54480-5 0  9997
2 65565  81.3043 345.2160 0007051 118.5378 241.6489 13.83887811 42519
PRAETORIAN SDA_603      
1 65566U 25203B   26195.81286509  .00000115  00000+0  92363-4 0  9995
2 65566  81.3048 345.1117 0010738 115.7692 244.4573 13.83961936 42527
PRAETORIAN SDA_604      
1 65567U 25203C   26195.85017882  .00000018  00000+0  52724-5 0  9996
2 65567  81.3065 345.5322 0006559 122.1363 238.0430 13.83049988 42505
PRAETORIAN SDA_605      
1 65568U 25203D   26195.80990513  .00000026  00000+0  12472-4 0  9997
2 65568  81.3030 345.2104 0009307 114.1628 246.0502 13.83199956 42513
PRAETORIAN SDA_606      
1 65569U 25203E   26195.79507880  .00000024  00000+0  10970-4 0  9996
2 65569  81.3067 345.4620 0007164 117.0142 243.1746 13.83200061 42508
PRAETORIAN SDA_607      
1 65570U 25203F   26195.78559854  .00000099  00000+0  78565-4 0  9991
2 65570  81.3048 345.0911 0009932 115.5001 244.7184 13.83758544 42529
PRAETORIAN SDA_608      
1 65571U 25203G   26195.84044412  .00000027  00000+0  13549-4 0  9990
2 65571  81.3019 345.2045 0007047 121.0646 239.1203 13.83819382 42517
PRAETORIAN SDA_609      
1 65572U 25203H   26195.83752323  .00000089  00000+0  69472-4 0  9991
2 65572  81.3061 345.1852 0007920 115.6677 244.5299 13.84211517 42526
PRAETORIAN SDA_610      
1 65573U 25203J   26195.82226692  .00000047  00000+0  31782-4 0  9993
2 65573  81.3021 345.1840 0007780 120.6690 239.5234 13.83528126 42513
PRAETORIAN SDA_611      
1 65574U 25203K   26195.83111926  .00000098  00000+0  78529-4 0  9994
2 65574  81.3025 345.3580 0006657 124.5208 235.6577 13.83311485 42505
PRAETORIAN SDA_612      
1 65575U 25203L   26195.78623981  .00000062  00000+0  44204-4 0  9992
2 65575  81.3039 344.9189 0010249 115.2436 244.9784 13.85040975 42534
PRAETORIAN SDA_613      
1 65576U 25203M   26195.84872705  .00000029  00000+0  15597-4 0  9996
2 65576  81.3012 345.3606 0006766 115.6236 244.5619 13.82767625 42501
PRAETORIAN SDA_614      
1 65577U 25203N   26195.78062957  .00000016  00000+0  33468-5 0  9994
2 65577  81.3027 345.0083 0008208 114.1967 246.0049 13.84778503 42538
PRAETORIAN SDA_615      
1 65578U 25203P   26195.83657674  .00000123  00000+0  99339-4 0  9994
2 65578  81.3037 344.9382 0010127 114.6099 245.6114 13.84438526 42530
PRAETORIAN SDA_616      
1 65579U 25203Q   26195.83115687  .00000109  00000+0  88734-4 0  9999
2 65579  81.3076 345.5223 0006535 122.8636 237.3150 13.83270193 42509
PRAETORIAN SDA_617      
1 65580U 25203R   26195.78278227  .00000032  00000+0  18493-4 0  9995
2 65580  81.3050 345.3955 0008472 114.6404 245.5635 13.83152104 42507
PRAETORIAN SDA_618      
1 65581U 25203S   26195.80386764  .00000110  00000+0  87712-4 0  9992
2 65581  81.3032 344.8998 0010849 117.7458 242.4800 13.84225635 42537
PRAETORIAN SDA_619      
1 65582U 25203T   26195.85115853  .00000078  00000+0  59492-4 0  9994
2 65582  81.3055 345.1844 0009353 115.7883 244.4240 13.83805968 43156
PRAETORIAN SDA_620      
1 65583U 25203U   26195.81377355  .00000070  00000+0  52961-4 0  9994
2 65583  81.3045 345.2507 0008628 112.6686 247.5383 13.83207706 42511
PRAETORIAN SDA_621      
1 65584U 25203V   26195.78069161  .00000014  00000+0  14234-5 0  9994
2 65584  81.3033 345.1817 0008483 109.8582 250.3489 13.83803685 42511
PRAETORIAN SDA_601      
1 65585U 25203W   26195.83629093 -.00000011  00000+0 -21182-4 0  9995
2 65585  81.3055 345.4581 0006608 125.6348 234.5425 13.83170386 42508
VICTUS HAZE PUMA        
1 69646U 26142A   26195.78469194  .00001975  00000+0  92002-4 0  9995
2 69646  97.4467  93.0928 0025040 267.3590  92.4779 15.20845903  3866
